0 FENGYUN 1C DEB
1 31313U 99025BPR 13280.08551193  .00000340  00000-0  18668-3 0  6684
2 31313 099.0068 005.5755 0047283 247.8120 229.7784 14.17948813339639
0 FENGYUN 1C DEB
1 31313U 99025BPR 13282.47379926  .00000426  00000-0  22824-3 0  6696
2 31313 099.0070 007.9974 0047360 240.9292 181.1580 14.17952833339970
0 FENGYUN 1C DEB
1 31313U 99025BPR 13284.51911061  .00000475  00000-0  25199-3 0  6709
2 31313 099.0071 010.0717 0047460 235.0407 181.7865 14.17954352340269
0 FENGYUN 1C DEB
1 31313U 99025BPR 13286.72537139  .00000517  00000-0  27239-3 0  6719
2 31313 099.0072 012.3094 0047560 228.7212 283.9894 14.17956394340576
0 FENGYUN 1C DEB
1 31313U 99025BPR 13289.04826538  .00000629  00000-0  32606-3 0  6720
2 31313 099.0069 014.6654 0047647 222.0718 261.5850 14.17960469340902
0 FENGYUN 1C DEB
1 31313U 99025BPR 13291.50471302  .00000623  00000-0  32316-3 0  6732
2 31313 099.0064 017.1569 0047786 215.0603 200.9401 14.17963721341251
0 FENGYUN 1C DEB
1 31313U 99025BPR 13294.05817250  .00000679  00000-0  35038-3 0  6747
2 31313 099.0061 019.7465 0047893 207.7708 275.5400 14.17967688341617
